ONEWEB-0056             
1 45159U 20008AE  25143.86945140 -.00000617  00000+0 -18032-2 0  9997
2 45159  87.8806 113.8882 0002017  82.0343 278.1014 13.10374302257195
ONEWEB-0057             
1 45160U 20008AF  25143.64784589 -.00000281  00000+0 -84229-3 0  9992
2 45160  87.8812 113.9447 0002065  79.0709 281.0650 13.10375203257333
ONEWEB-0058             
1 45161U 20008AG  25143.86377255 -.00000670  00000+0 -19568-2 0  9990
2 45161  87.8802 113.9159 0001915  86.6977 273.4370 13.10371297257431
ONEWEB-0059             
1 45162U 20008AH  25143.63124659 -.00000551  00000+0 -16159-2 0  9995
2 45162  87.8806 113.9581 0001970  87.6803 272.4549 13.10372197257308
ONEWEB-0062             
1 45163U 20008AJ  25143.80969100  .00000141  00000+0  36703-3 0  9994
2 45163  87.8809 113.9034 0002232  92.9340 267.2043 13.10378388257198
ONEWEB-0065             
1 45164U 20008AK  25143.48351096 -.00000667  00000+0 -19469-2 0  9992
2 45164  87.8811 113.9895 0002035  79.7014 280.4342 13.10374103257582
ONEWEB-0066             
1 45424U 20020A   25143.80428451  .00000004  00000+0 -24595-4 0  9993
2 45424  87.8826  98.6738 0001655  78.4656 281.6658 13.11414331251651
ONEWEB-0067             
1 45425U 20020B   25143.84170515  .00000016  00000+0  85700-5 0  9991
2 45425  87.8815  98.5851 0001902  77.6155 282.5185 13.11419979251709
